{
  "type": "FeatureCollection",
  "features": [
    {
      "type": "Feature",
      "properties": {
        "norad_id": 34728,
        "name": "COSMOS 2251 DEB",
        "group": "cosmos-2251-debris",
        "lat": -31.312935786188,
        "lon": 53.549565351298526,
        "alt_km": 692.0004754930778,
        "timestamp": "2025-12-27T06:41:31.320808+00:00",
        "meta_object_name": "COSMOS 2251 DEB",
        "meta_object_id": "1993-036YW",
        "meta_epoch": "2025-12-26T18:18:10.094976",
        "meta_mean_motion": 14.70962251,
        "meta_eccentricity": 0.00417457,
        "meta_inclination": 74.0156,
        "meta_ra_of_asc_node": 224.5108,
        "meta_arg_of_pericenter": 18.4003,
        "meta_mean_anomaly": 341.8666,
        "meta_ephemeris_type": 0,
        "meta_classification_type": "U",
        "meta_norad_cat_id": 34728,
        "meta_element_set_no": 999,
        "meta_rev_at_epoch": 89006,
        "meta_bstar": 0.00065234941,
        "meta_mean_motion_dot": 4.022e-05,
        "meta_mean_motion_ddot": 0,
        "tle_line1": "1 34728U 93036YW  25360.76261684  .00004022  00000+0  65235-3 0  9992",
        "tle_line2": "2 34728  74.0156 224.5108 0041745  18.4003 341.8666 14.70962251890062"
      },
      "geometry": {
        "type": "Point",
        "coordinates": [
          53.549565351298526,
          -31.312935786188
        ]
      }
    },
    {
      "type": "Feature",
      "properties": {
        "norad_id": 34729,
        "name": "COSMOS 2251 DEB",
        "group": "cosmos-2251-debris",
        "lat": 39.25837391523144,
        "lon": 136.07695808640224,
        "alt_km": 611.2603505160987,
        "timestamp": "2025-12-27T06:41:31.320818+00:00",
        "meta_object_name": "COSMOS 2251 DEB",
        "meta_object_id": "1993-036YX",
        "meta_epoch": "2025-12-26T22:04:48.744768",
        "meta_mean_motion": 14.83215696,
        "meta_eccentricity": 0.00121285,
        "meta_inclination": 74.0183,
        "meta_ra_of_asc_node": 330.3338,
        "meta_arg_of_pericenter": 82.0166,
        "meta_mean_anomaly": 301.4284,
        "meta_ephemeris_type": 0,
        "meta_classification_type": "U",
        "meta_norad_cat_id": 34729,
        "meta_element_set_no": 999,
        "meta_rev_at_epoch": 88668,
        "meta_bstar": 0.0024154183,
        "meta_mean_motion_dot": 0.00019784,
        "meta_mean_motion_ddot": 0,
        "tle_line1": "1 34729U 93036YX  25360.92000862  .00019784  00000+0  24154-2 0  9995",
        "tle_line2": "2 34729  74.0183 330.3338 0012128  82.0166 301.4284 14.83215696886683"
      },
      "geometry": {
        "type": "Point",
        "coordinates": [
          136.07695808640224,
          39.25837391523144
        ]
      }
    },
    {
      "type": "Feature",
      "properties": {
        "norad_id": 34732,
        "name": "COSMOS 2251 DEB",
        "group": "cosmos-2251-debris",
        "lat": -57.56891143140203,
        "lon": 39.25988382918397,
        "alt_km": 738.3032125083373,
        "timestamp": "2025-12-27T06:41:31.320828+00:00",
        "meta_object_name": "COSMOS 2251 DEB",
        "meta_object_id": "1993-036ZA",
        "meta_epoch": "2025-12-26T11:09:52.231104",
        "meta_mean_motion": 14.47315667,
        "meta_eccentricity": 0.0040042,
        "meta_inclination": 74.0455,
        "meta_ra_of_asc_node": 67.5387,
        "meta_arg_of_pericenter": 215.9347,
        "meta_mean_anomaly": 164.6286,
        "meta_ephemeris_type": 0,
        "meta_classification_type": "U",
        "meta_norad_cat_id": 34732,
        "meta_element_set_no": 999,
        "meta_rev_at_epoch": 88342,
        "meta_bstar": 0.00014622,
        "meta_mean_motion_dot": 5.13e-06,
        "meta_mean_motion_ddot": 0,
        "tle_line1": "1 34732U 93036ZA  25360.46518786  .00000513  00000+0  14622-3 0  9997",
        "tle_line2": "2 34732  74.0455  67.5387 0040042 215.9347 164.6286 14.47315667883425"
      },
      "geometry": {
        "type": "Point",
        "coordinates": [
          39.25988382918397,
          -57.56891143140203
        ]
      }
    },
    {
      "type": "Feature",
      "properties": {
        "norad_id": 34736,
        "name": "COSMOS 2251 DEB",
        "group": "cosmos-2251-debris",
        "lat": -67.25066314409125,
        "lon": -132.75127162351671,
        "alt_km": 385.632583574421,
        "timestamp": "2025-12-27T06:41:31.320838+00:00",
        "meta_object_name": "COSMOS 2251 DEB",
        "meta_object_id": "1993-036ZE",
        "meta_epoch": "2025-12-26T11:09:44.310816",
        "meta_mean_motion": 15.6128001,
        "meta_eccentricity": 0.0009292,
        "meta_inclination": 73.9968,
        "meta_ra_of_asc_node": 5.8756,
        "meta_arg_of_pericenter": 335.4778,
        "meta_mean_anomaly": 24.5997,
        "meta_ephemeris_type": 0,
        "meta_classification_type": "U",
        "meta_norad_cat_id": 34736,
        "meta_element_set_no": 999,
        "meta_rev_at_epoch": 88661,
        "meta_bstar": 0.0094893,
        "meta_mean_motion_dot": 0.00885322,
        "meta_mean_motion_ddot": 0,
        "tle_line1": "1 34736U 93036ZE  25360.46509619  .00885322  00000+0  94893-2 0  9992",
        "tle_line2": "2 34736  73.9968   5.8756 0009292 335.4778  24.5997 15.61280010886616"
      },
      "geometry": {
        "type": "Point",
        "coordinates": [
          -132.75127162351671,
          -67.25066314409125
        ]
      }
    },
    {
      "type": "Feature",
      "properties": {
        "norad_id": 34738,
        "name": "COSMOS 2251 DEB",
        "group": "cosmos-2251-debris",
        "lat": -71.73741807244764,
        "lon": 55.79600978384877,
        "alt_km": 712.5874821563511,
        "timestamp": "2025-12-27T06:41:31.320848+00:00",
        "meta_object_name": "COSMOS 2251 DEB",
        "meta_object_id": "1993-036ZG",
        "meta_epoch": "2025-12-26T14:30:55.417248",
        "meta_mean_motion": 14.46334745,
        "meta_eccentricity": 0.0047601,
        "meta_inclination": 74.0158,
        "meta_ra_of_asc_node": 117.3521,
        "meta_arg_of_pericenter": 261.0965,
        "meta_mean_anomaly": 109.572,
        "meta_ephemeris_type": 0,
        "meta_classification_type": "U",
        "meta_norad_cat_id": 34738,
        "meta_element_set_no": 999,
        "meta_rev_at_epoch": 88059,
        "meta_bstar": 0.00037173,
        "meta_mean_motion_dot": 1.324e-05,
        "meta_mean_motion_ddot": 0,
        "tle_line1": "1 34738U 93036ZG  25360.60480807  .00001324  00000+0  37173-3 0  9998",
        "tle_line2": "2 34738  74.0158 117.3521 0047601 261.0965 109.5720 14.46334745880594"
      },
      "geometry": {
        "type": "Point",
        "coordinates": [
          55.79600978384877,
          -71.73741807244764
        ]
      }
    },
    {
      "type": "Feature",
      "properties": {
        "norad_id": 34750,
        "name": "COSMOS 2251 DEB",
        "group": "cosmos-2251-debris",
        "lat": 33.67712617368908,
        "lon": -16.875072672744853,
        "alt_km": 661.0049435260908,
        "timestamp": "2025-12-27T06:41:31.320859+00:00",
        "meta_object_name": "COSMOS 2251 DEB",
        "meta_object_id": "1993-036ZU",
        "meta_epoch": "2025-12-26T22:22:40.831392",
        "meta_mean_motion": 14.61470505,
        "meta_eccentricity": 0.00382173,
        "meta_inclination": 74.1071,
        "meta_ra_of_asc_node": 174.7283,
        "meta_arg_of_pericenter": 122.8481,
        "meta_mean_anomaly": 359.8296,
        "meta_ephemeris_type": 0,
        "meta_classification_type": "U",
        "meta_norad_cat_id": 34750,
        "meta_element_set_no": 999,
        "meta_rev_at_epoch": 88438,
        "meta_bstar": 0.0014743243,
        "meta_mean_motion_dot": 7.361e-05,
        "meta_mean_motion_ddot": 0,
        "tle_line1": "1 34750U 93036ZU  25360.93241703  .00007361  00000+0  14743-2 0  9992",
        "tle_line2": "2 34750  74.1071 174.7283 0038217 122.8481 359.8296 14.61470505884386"
      },
      "geometry": {
        "type": "Point",
        "coordinates": [
          -16.875072672744853,
          33.67712617368908
        ]
      }
    },
    {
      "type": "Feature",
      "properties": {
        "norad_id": 34752,
        "name": "COSMOS 2251 DEB",
        "group": "cosmos-2251-debris",
        "lat": 28.906177725476773,
        "lon": 141.89916705976648,
        "alt_km": 545.2813342679174,
        "timestamp": "2025-12-27T06:41:31.320869+00:00",
        "meta_object_name": "COSMOS 2251 DEB",
        "meta_object_id": "1993-036ZW",
        "meta_epoch": "2025-12-26T22:01:45.950880",
        "meta_mean_motion": 15.00264878,
        "meta_eccentricity": 0.00475772,
        "meta_inclination": 74.0133,
        "meta_ra_of_asc_node": 331.7421,
        "meta_arg_of_pericenter": 95.626,
        "meta_mean_anomaly": 265.0355,
        "meta_ephemeris_type": 0,
        "meta_classification_type": "U",
        "meta_norad_cat_id": 34752,
        "meta_element_set_no": 999,
        "meta_rev_at_epoch": 90062,
        "meta_bstar": 0.0011986035,
        "meta_mean_motion_dot": 0.00015369,
        "meta_mean_motion_ddot": 0,
        "tle_line1": "1 34752U 93036ZW  25360.91789295  .00015369  00000+0  11986-2 0  9998",
        "tle_line2": "2 34752  74.0133 331.7421 0047577  95.6260 265.0355 15.00264878900624"
      },
      "geometry": {
        "type": "Point",
        "coordinates": [
          141.89916705976648,
          28.906177725476773
        ]
      }
    }
  ]
}